STARLINK-5603           
1 55762U 23028X   26068.84459013  .00001195  00000+0  10793-3 0  9994
2 55762  69.9999 224.1705 0002971 283.5630  76.5198 14.98338887166553
HYPSO-2                 
1 60531U 24149BR  26068.64186663  .00003981  00000+0  33980-3 0  9993
2 60531  97.6894 146.3679 0001390  74.8032 285.3344 14.98259029 85149
